IRIDIUM 36              
1 24967U 97056C   24316.81615289  .00001788  00000+0  59456-3 0  9996
2 24967  86.3944 264.2638 0002435  80.1905 279.9567 14.37218314420995
IRIDIUM 39              
1 25042U 97069D   24316.72862399  .00002639  00000+0  69581-3 0  9997
2 25042  86.3874 304.3782 0016390 318.9200  41.0769 14.48604363417738
IRIDIUM 38              
1 25043U 97069E   24316.28817800  .00001678  00000+0  55211-3 0  9993
2 25043  86.3937 324.8588 0004152  91.5396 268.6277 14.37697476414646
IRIDIUM 42              
1 25077U 97077A   24316.79549229  .00001461  00000+0  49686-3 0  9991
2 25077  86.3950 330.5471 0002913  94.9574 265.1956 14.35966860409993
IRIDIUM 44              
1 25078U 97077B   24316.70945323  .00001926  00000+0  60780-3 0  9992
2 25078  86.3922 313.0817 0003511  61.1935 298.9616 14.39828421412439
IRIDIUM 45              
1 25104U 97082A   24317.10575560  .00025226  00000+0  11631-2 0  9994
2 25104  86.3624 152.3938 0143212  58.9266 302.5937 15.11342023419389
IRIDIUM 24              
1 25105U 97082B   24317.02940710  .00001477  00000+0  44727-3 0  9994
2 25105  86.3946 172.3335 0013489  76.9772 283.2933 14.41659292412176
IRIDIUM 51              
1 25262U 98018A   24316.86047605  .00044817  00000+0  16101-2 0  9999
2 25262  86.3930 161.8571 0121907 355.9669   4.0578 15.21623070414000
